[
    {
        "Altitude(m)": 612513.9108926484,
        "Argument of Periapsis(deg)": 0.0,
        "Eccentricity": 0.0,
        "Inclination(deg)": 60.0,
        "Latitude(deg)": -28.135896227388535,
        "Longitude(deg)": 37.91316511465409,
        "Mean Anomaly(deg)": -147.2727,
        "RAAN(deg)": 300.0,
        "Satellite Name": "Test1 1333",
        "Satellite Number": 1333,
        "Semi-Major Axis(m)": 6980739.136638005,
        "Time(s)": 0
    },
    {
        "Altitude(m)": 612708.2784383832,
        "Argument of Periapsis(deg)": 0.00010418945913296404,
        "Eccentricity": 0.0,
        "Inclination(deg)": 60.0,
        "Latitude(deg)": -28.647634802713824,
        "Longitude(deg)": 38.27039634803816,
        "Mean Anomaly(deg)": -146.65259385453814,
        "RAAN(deg)": 299.99957995086027,
        "Satellite Name": "Test1 1333",
        "Satellite Number": 1333,
        "Semi-Major Axis(m)": 6980739.136638005,
        "Time(s)": 10
    }
]